{
  "type": "FeatureCollection",
  "features": [
    {
      "type": "Feature",
      "properties": {
        "norad_id": 67038,
        "name": "STARLINK-35775",
        "group": "last-30-days",
        "lat": -40.49051429590513,
        "lon": 18.354172154236334,
        "alt_km": 313.712489918953,
        "timestamp": "2025-12-20T22:39:09.409916+00:00",
        "meta_object_name": "STARLINK-35775",
        "meta_object_id": "2025-294J",
        "meta_epoch": "2025-12-20T14:00:03.000384",
        "meta_mean_motion": 15.87835421,
        "meta_eccentricity": 0.00016322,
        "meta_inclination": 42.9999,
        "meta_ra_of_asc_node": 134.1961,
        "meta_arg_of_pericenter": 274.1873,
        "meta_mean_anomaly": 75.6103,
        "meta_ephemeris_type": 0,
        "meta_classification_type": "U",
        "meta_norad_cat_id": 67038,
        "meta_element_set_no": 999,
        "meta_rev_at_epoch": 148,
        "meta_bstar": -0.0058075103,
        "meta_mean_motion_dot": -0.01413172,
        "meta_mean_motion_ddot": 0,
        "tle_line1": "1 67038U 25294J   25354.58336806 -.01413172  00000+0 -58075-2 0  9991",
        "tle_line2": "2 67038  42.9999 134.1961 0001632 274.1873  75.6103 15.87835421  1486"
      },
      "geometry": {
        "type": "Point",
        "coordinates": [
          18.354172154236334,
          -40.49051429590513
        ]
      }
    },
    {
      "type": "Feature",
      "properties": {
        "norad_id": 67039,
        "name": "STARLINK-35705",
        "group": "last-30-days",
        "lat": -41.53926358025689,
        "lon": 23.904390339689183,
        "alt_km": 313.506673961896,
        "timestamp": "2025-12-20T22:39:09.409925+00:00",
        "meta_object_name": "STARLINK-35705",
        "meta_object_id": "2025-294K",
        "meta_epoch": "2025-12-20T14:00:03.000384",
        "meta_mean_motion": 15.8790141,
        "meta_eccentricity": 0.00016533,
        "meta_inclination": 42.9999,
        "meta_ra_of_asc_node": 134.1856,
        "meta_arg_of_pericenter": 269.623,
        "meta_mean_anomaly": 84.422,
        "meta_ephemeris_type": 0,
        "meta_classification_type": "U",
        "meta_norad_cat_id": 67039,
        "meta_element_set_no": 999,
        "meta_rev_at_epoch": 137,
        "meta_bstar": -0.0058337017,
        "meta_mean_motion_dot": -0.01422831,
        "meta_mean_motion_ddot": 0,
        "tle_line1": "1 67039U 25294K   25354.58336806 -.01422831  00000+0 -58337-2 0  9995",
        "tle_line2": "2 67039  42.9999 134.1856 0001653 269.6230  84.4220 15.87901410  1377"
      },
      "geometry": {
        "type": "Point",
        "coordinates": [
          23.904390339689183,
          -41.53926358025689
        ]
      }
    },
    {
      "type": "Feature",
      "properties": {
        "norad_id": 67040,
        "name": "STARLINK-35786",
        "group": "last-30-days",
        "lat": -41.07403308761982,
        "lon": 21.24380464396317,
        "alt_km": 313.4936082365257,
        "timestamp": "2025-12-20T22:39:09.409934+00:00",
        "meta_object_name": "STARLINK-35786",
        "meta_object_id": "2025-294L",
        "meta_epoch": "2025-12-20T14:00:03.000384",
        "meta_mean_motion": 15.8786182,
        "meta_eccentricity": 0.00017696,
        "meta_inclination": 42.9999,
        "meta_ra_of_asc_node": 134.1907,
        "meta_arg_of_pericenter": 267.9203,
        "meta_mean_anomaly": 84.1104,
        "meta_ephemeris_type": 0,
        "meta_classification_type": "U",
        "meta_norad_cat_id": 67040,
        "meta_element_set_no": 999,
        "meta_rev_at_epoch": 137,
        "meta_bstar": -0.0057873284,
        "meta_mean_motion_dot": -0.01410648,
        "meta_mean_motion_ddot": 0,
        "tle_line1": "1 67040U 25294L   25354.58336806 -.01410648  00000+0 -57873-2 0  9994",
        "tle_line2": "2 67040  42.9999 134.1907 0001769 267.9203  84.1104 15.87861820  1373"
      },
      "geometry": {
        "type": "Point",
        "coordinates": [
          21.24380464396317,
          -41.07403308761982
        ]
      }
    },
    {
      "type": "Feature",
      "properties": {
        "norad_id": 67041,
        "name": "STARLINK-35765",
        "group": "last-30-days",
        "lat": -41.92641483313567,
        "lon": 26.487475220896144,
        "alt_km": 313.4038994183593,
        "timestamp": "2025-12-20T22:39:09.409942+00:00",
        "meta_object_name": "STARLINK-35765",
        "meta_object_id": "2025-294M",
        "meta_epoch": "2025-12-20T14:00:03.000384",
        "meta_mean_motion": 15.87937039,
        "meta_eccentricity": 0.00016674,
        "meta_inclination": 42.9998,
        "meta_ra_of_asc_node": 134.1806,
        "meta_arg_of_pericenter": 269.4622,
        "meta_mean_anomaly": 86.5094,
        "meta_ephemeris_type": 0,
        "meta_classification_type": "U",
        "meta_norad_cat_id": 67041,
        "meta_element_set_no": 999,
        "meta_rev_at_epoch": 137,
        "meta_bstar": -0.0058299385,
        "meta_mean_motion_dot": -0.01424268,
        "meta_mean_motion_ddot": 0,
        "tle_line1": "1 67041U 25294M   25354.58336806 -.01424268  00000+0 -58299-2 0  9991",
        "tle_line2": "2 67041  42.9998 134.1806 0001667 269.4622  86.5094 15.87937039  1370"
      },
      "geometry": {
        "type": "Point",
        "coordinates": [
          26.487475220896144,
          -41.92641483313567
        ]
      }
    },
    {
      "type": "Feature",
      "properties": {
        "norad_id": 67042,
        "name": "STARLINK-35773",
        "group": "last-30-days",
        "lat": -42.28596614383526,
        "lon": 29.375574871033507,
        "alt_km": 313.30286760359377,
        "timestamp": "2025-12-20T22:39:09.409971+00:00",
        "meta_object_name": "STARLINK-35773",
        "meta_object_id": "2025-294N",
        "meta_epoch": "2025-12-20T14:00:03.000384",
        "meta_mean_motion": 15.87970664,
        "meta_eccentricity": 0.00017115,
        "meta_inclination": 42.9999,
        "meta_ra_of_asc_node": 134.1753,
        "meta_arg_of_pericenter": 269.0948,
        "meta_mean_anomaly": 89.0173,
        "meta_ephemeris_type": 0,
        "meta_classification_type": "U",
        "meta_norad_cat_id": 67042,
        "meta_element_set_no": 999,
        "meta_rev_at_epoch": 157,
        "meta_bstar": -0.005860955,
        "meta_mean_motion_dot": -0.01432985,
        "meta_mean_motion_ddot": 0,
        "tle_line1": "1 67042U 25294N   25354.58336806 -.01432985  00000+0 -58610-2 0  9994",
        "tle_line2": "2 67042  42.9999 134.1753 0001711 269.0948  89.0173 15.87970664  1579"
      },
      "geometry": {
        "type": "Point",
        "coordinates": [
          29.375574871033507,
          -42.28596614383526
        ]
      }
    },
    {
      "type": "Feature",
      "properties": {
        "norad_id": 67043,
        "name": "STARLINK-35901",
        "group": "last-30-days",
        "lat": -42.569486855162154,
        "lon": 32.26383224329685,
        "alt_km": 313.2025891349531,
        "timestamp": "2025-12-20T22:39:09.409982+00:00",
        "meta_object_name": "STARLINK-35901",
        "meta_object_id": "2025-294P",
        "meta_epoch": "2025-12-20T14:00:03.000384",
        "meta_mean_motion": 15.88006279,
        "meta_eccentricity": 0.00017264,
        "meta_inclination": 43,
        "meta_ra_of_asc_node": 134.1701,
        "meta_arg_of_pericenter": 268.3788,
        "meta_mean_anomaly": 91.8462,
        "meta_ephemeris_type": 0,
        "meta_classification_type": "U",
        "meta_norad_cat_id": 67043,
        "meta_element_set_no": 999,
        "meta_rev_at_epoch": 157,
        "meta_bstar": -0.0058700308,
        "meta_mean_motion_dot": -0.0143716,
        "meta_mean_motion_ddot": 0,
        "tle_line1": "1 67043U 25294P   25354.58336806 -.01437160  00000+0 -58700-2 0  9995",
        "tle_line2": "2 67043  43.0000 134.1701 0001726 268.3788  91.8462 15.88006279  1573"
      },
      "geometry": {
        "type": "Point",
        "coordinates": [
          32.26383224329685,
          -42.569486855162154
        ]
      }
    },
    {
      "type": "Feature",
      "properties": {
        "norad_id": 67044,
        "name": "STARLINK-35884",
        "group": "last-30-days",
        "lat": -42.77378397433112,
        "lon": 35.07562566319623,
        "alt_km": 313.1402124304641,
        "timestamp": "2025-12-20T22:39:09.409992+00:00",
        "meta_object_name": "STARLINK-35884",
        "meta_object_id": "2025-294Q",
        "meta_epoch": "2025-12-20T14:00:03.000384",
        "meta_mean_motion": 15.88040625,
        "meta_eccentricity": 0.00017185,
        "meta_inclination": 43.0002,
        "meta_ra_of_asc_node": 134.1648,
        "meta_arg_of_pericenter": 271.4372,
        "meta_mean_anomaly": 90.8323,
        "meta_ephemeris_type": 0,
        "meta_classification_type": "U",
        "meta_norad_cat_id": 67044,
        "meta_element_set_no": 999,
        "meta_rev_at_epoch": 157,
        "meta_bstar": -0.0058913983,
        "meta_mean_motion_dot": -0.01443851,
        "meta_mean_motion_ddot": 0,
        "tle_line1": "1 67044U 25294Q   25354.58336806 -.01443851  00000+0 -58914-2 0  9997",
        "tle_line2": "2 67044  43.0002 134.1648 0001718 271.4372  90.8323 15.88040625  1579"
      },
      "geometry": {
        "type": "Point",
        "coordinates": [
          35.07562566319623,
          -42.77378397433112
        ]
      }
    }
  ]
}